HAWK-2B                 
1 47508U 21006CZ  26068.67629241  .00009474  00000+0  29651-3 0  9991
2 47508  97.2334 114.1140 0007102 185.9063 174.2098 15.33301353284246
STARLINK-34177          
1 64170U 25113A   26068.34317631  .00027361  00000+0  93258-3 0  9998
2 64170  53.1590  92.6323 0000942  85.0968 275.0140 15.30198320 45010
